{
  "type": "FeatureCollection",
  "features": [
    {
      "type": "Feature",
      "properties": {
        "norad_id": 34681,
        "name": "COSMOS 2251 DEB",
        "group": "cosmos-2251-debris",
        "lat": -55.23041320139438,
        "lon": -103.80015580167368,
        "alt_km": 610.8368102882887,
        "timestamp": "2025-12-17T17:50:19.645506+00:00",
        "meta_object_name": "COSMOS 2251 DEB",
        "meta_object_id": "1993-036YB",
        "meta_epoch": "2025-12-17T05:49:26.647392",
        "meta_mean_motion": 14.83323696,
        "meta_eccentricity": 0.00256066,
        "meta_inclination": 74.0631,
        "meta_ra_of_asc_node": 281.4945,
        "meta_arg_of_pericenter": 337.5743,
        "meta_mean_anomaly": 171.8322,
        "meta_ephemeris_type": 0,
        "meta_classification_type": "U",
        "meta_norad_cat_id": 34681,
        "meta_element_set_no": 999,
        "meta_rev_at_epoch": 89337,
        "meta_bstar": 0.0012447559,
        "meta_mean_motion_dot": 0.00010235,
        "meta_mean_motion_ddot": 0,
        "tle_line1": "1 34681U 93036YB  25351.24266953  .00010235  00000+0  12448-2 0  9997",
        "tle_line2": "2 34681  74.0631 281.4945 0025606 337.5743 171.8322 14.83323696893378"
      },
      "geometry": {
        "type": "Point",
        "coordinates": [
          -103.80015580167368,
          -55.23041320139438
        ]
      }
    },
    {
      "type": "Feature",
      "properties": {
        "norad_id": 34682,
        "name": "COSMOS 2251 DEB",
        "group": "cosmos-2251-debris",
        "lat": -21.932983416638127,
        "lon": 66.84210912462046,
        "alt_km": 710.096140821598,
        "timestamp": "2025-12-17T17:50:19.645516+00:00",
        "meta_object_name": "COSMOS 2251 DEB",
        "meta_object_id": "1993-036YC",
        "meta_epoch": "2025-12-17T04:54:17.861760",
        "meta_mean_motion": 14.58928065,
        "meta_eccentricity": 0.00181357,
        "meta_inclination": 74.0401,
        "meta_ra_of_asc_node": 74.4851,
        "meta_arg_of_pericenter": 207.0402,
        "meta_mean_anomaly": 180.7843,
        "meta_ephemeris_type": 0,
        "meta_classification_type": "U",
        "meta_norad_cat_id": 34682,
        "meta_element_set_no": 999,
        "meta_rev_at_epoch": 88751,
        "meta_bstar": 0.00056926282,
        "meta_mean_motion_dot": 2.646e-05,
        "meta_mean_motion_ddot": 0,
        "tle_line1": "1 34682U 93036YC  25351.20437340  .00002646  00000+0  56926-3 0  9991",
        "tle_line2": "2 34682  74.0401  74.4851 0018135 207.0402 180.7843 14.58928065887511"
      },
      "geometry": {
        "type": "Point",
        "coordinates": [
          66.84210912462046,
          -21.932983416638127
        ]
      }
    },
    {
      "type": "Feature",
      "properties": {
        "norad_id": 34683,
        "name": "COSMOS 2251 DEB",
        "group": "cosmos-2251-debris",
        "lat": -48.10678650207078,
        "lon": -78.73541504347692,
        "alt_km": 674.3905728847012,
        "timestamp": "2025-12-17T17:50:19.645527+00:00",
        "meta_object_name": "COSMOS 2251 DEB",
        "meta_object_id": "1993-036YD",
        "meta_epoch": "2025-12-16T16:44:52.401408",
        "meta_mean_motion": 14.64541526,
        "meta_eccentricity": 0.00179666,
        "meta_inclination": 74.0296,
        "meta_ra_of_asc_node": 84.6565,
        "meta_arg_of_pericenter": 199.7117,
        "meta_mean_anomaly": 281.0939,
        "meta_ephemeris_type": 0,
        "meta_classification_type": "U",
        "meta_norad_cat_id": 34683,
        "meta_element_set_no": 999,
        "meta_rev_at_epoch": 88406,
        "meta_bstar": 0.00092874432,
        "meta_mean_motion_dot": 4.91e-05,
        "meta_mean_motion_ddot": 0,
        "tle_line1": "1 34683U 93036YD  25350.69782872  .00004910  00000+0  92874-3 0  9995",
        "tle_line2": "2 34683  74.0296  84.6565 0017966 199.7117 281.0939 14.64541526884068"
      },
      "geometry": {
        "type": "Point",
        "coordinates": [
          -78.73541504347692,
          -48.10678650207078
        ]
      }
    },
    {
      "type": "Feature",
      "properties": {
        "norad_id": 34685,
        "name": "COSMOS 2251 DEB",
        "group": "cosmos-2251-debris",
        "lat": -68.53013719636004,
        "lon": 6.002786113123103,
        "alt_km": 698.1282241542722,
        "timestamp": "2025-12-17T17:50:19.645537+00:00",
        "meta_object_name": "COSMOS 2251 DEB",
        "meta_object_id": "1993-036YF",
        "meta_epoch": "2025-12-16T21:28:53.311872",
        "meta_mean_motion": 14.57545889,
        "meta_eccentricity": 0.00142652,
        "meta_inclination": 74.0286,
        "meta_ra_of_asc_node": 140.8813,
        "meta_arg_of_pericenter": 245.0641,
        "meta_mean_anomaly": 241.3979,
        "meta_ephemeris_type": 0,
        "meta_classification_type": "U",
        "meta_norad_cat_id": 34685,
        "meta_element_set_no": 999,
        "meta_rev_at_epoch": 88592,
        "meta_bstar": 0.00082259479,
        "meta_mean_motion_dot": 3.72e-05,
        "meta_mean_motion_ddot": 0,
        "tle_line1": "1 34685U 93036YF  25350.89506148  .00003720  00000+0  82259-3 0  9993",
        "tle_line2": "2 34685  74.0286 140.8813 0014265 245.0641 241.3979 14.57545889885923"
      },
      "geometry": {
        "type": "Point",
        "coordinates": [
          6.002786113123103,
          -68.53013719636004
        ]
      }
    },
    {
      "type": "Feature",
      "properties": {
        "norad_id": 34689,
        "name": "COSMOS 2251 DEB",
        "group": "cosmos-2251-debris",
        "lat": -38.91479752679021,
        "lon": 48.00469560428564,
        "alt_km": 803.2707894061014,
        "timestamp": "2025-12-17T17:50:19.645547+00:00",
        "meta_object_name": "COSMOS 2251 DEB",
        "meta_object_id": "1993-036YK",
        "meta_epoch": "2025-12-15T15:20:16.539648",
        "meta_mean_motion": 14.04491905,
        "meta_eccentricity": 0.02275051,
        "meta_inclination": 74.0901,
        "meta_ra_of_asc_node": 218.3502,
        "meta_arg_of_pericenter": 286.6099,
        "meta_mean_anomaly": 101.262,
        "meta_ephemeris_type": 0,
        "meta_classification_type": "U",
        "meta_norad_cat_id": 34689,
        "meta_element_set_no": 999,
        "meta_rev_at_epoch": 84382,
        "meta_bstar": 0.0020174062,
        "meta_mean_motion_dot": 4.031e-05,
        "meta_mean_motion_ddot": 0,
        "tle_line1": "1 34689U 93036YK  25349.63908032  .00004031  00000+0  20174-2 0  9998",
        "tle_line2": "2 34689  74.0901 218.3502 0227505 286.6099 101.2620 14.04491905843829"
      },
      "geometry": {
        "type": "Point",
        "coordinates": [
          48.00469560428564,
          -38.91479752679021
        ]
      }
    },
    {
      "type": "Feature",
      "properties": {
        "norad_id": 34721,
        "name": "COSMOS 2251 DEB",
        "group": "cosmos-2251-debris",
        "lat": 60.964243736188244,
        "lon": 106.27097147507953,
        "alt_km": 1023.6070730784932,
        "timestamp": "2025-12-17T17:50:19.645557+00:00",
        "meta_object_name": "COSMOS 2251 DEB",
        "meta_object_id": "1993-036YP",
        "meta_epoch": "2025-12-16T09:23:35.751264",
        "meta_mean_motion": 13.96869832,
        "meta_eccentricity": 0.02234243,
        "meta_inclination": 73.923,
        "meta_ra_of_asc_node": 319.9132,
        "meta_arg_of_pericenter": 258.2136,
        "meta_mean_anomaly": 262.1516,
        "meta_ephemeris_type": 0,
        "meta_classification_type": "U",
        "meta_norad_cat_id": 34721,
        "meta_element_set_no": 999,
        "meta_rev_at_epoch": 85200,
        "meta_bstar": 0.00097212088,
        "meta_mean_motion_dot": 1.644e-05,
        "meta_mean_motion_ddot": 0,
        "tle_line1": "1 34721U 93036YP  25350.39138601  .00001644  00000+0  97212-3 0  9992",
        "tle_line2": "2 34721  73.9230 319.9132 0223424 258.2136 262.1516 13.96869832852008"
      },
      "geometry": {
        "type": "Point",
        "coordinates": [
          106.27097147507953,
          60.964243736188244
        ]
      }
    },
    {
      "type": "Feature",
      "properties": {
        "norad_id": 34722,
        "name": "COSMOS 2251 DEB",
        "group": "cosmos-2251-debris",
        "lat": -66.88451406102885,
        "lon": -170.1836249675001,
        "alt_km": 738.9192804013319,
        "timestamp": "2025-12-17T17:50:19.645567+00:00",
        "meta_object_name": "COSMOS 2251 DEB",
        "meta_object_id": "1993-036YQ",
        "meta_epoch": "2025-12-17T06:44:10.255200",
        "meta_mean_motion": 14.11949238,
        "meta_eccentricity": 0.01669058,
        "meta_inclination": 73.8729,
        "meta_ra_of_asc_node": 327.9677,
        "meta_arg_of_pericenter": 252.7318,
        "meta_mean_anomaly": 169.8752,
        "meta_ephemeris_type": 0,
        "meta_classification_type": "U",
        "meta_norad_cat_id": 34722,
        "meta_element_set_no": 999,
        "meta_rev_at_epoch": 86309,
        "meta_bstar": 0.00064271422,
        "meta_mean_motion_dot": 1.313e-05,
        "meta_mean_motion_ddot": 0,
        "tle_line1": "1 34722U 93036YQ  25351.28067425  .00001313  00000+0  64271-3 0  9999",
        "tle_line2": "2 34722  73.8729 327.9677 0166905 252.7318 169.8752 14.11949238863098"
      },
      "geometry": {
        "type": "Point",
        "coordinates": [
          -170.1836249675001,
          -66.88451406102885
        ]
      }
    }
  ]
}